STARLINK-31484          
1 59005U 24036H   26204.20046349  .00002111  00000+0  83373-4 0  9998
2 59005  53.1606 168.4744 0001152  65.7397 294.3724 15.30199033136074
STARLINK-31450          
1 59006U 24036J   26204.14254105  .00000097  00000+0  15393-4 0  9991
2 59006  53.1604 168.8234 0001465  94.4120 265.7049 15.30191827136065
STARLINK-31456          
1 59007U 24036K   26204.13831744 -.00001402  00000+0 -35229-4 0  9994
2 59007  53.1611 168.7928 0001446  87.4005 272.7161 15.30197605136069
STARLINK-31460          
1 59008U 24036L   26204.15118163 -.00000626  00000+0 -73938-5 0  9997
2 59008  53.1615 168.8817 0001224 102.7653 257.3487 15.34386221136064
STARLINK-31488          
1 59009U 24036M   26204.19940739 -.00000951  00000+0 -19983-4 0  9994
2 59009  53.1595 168.4668 0001283 105.4430 254.6713 15.30199514136076
STARLINK-31528          
1 59010U 24036N   26204.18896818 -.00000115  00000+0  82594-5 0  9993
2 59010  53.1577 169.1132 0001832  80.7780 279.3428 15.30202791136063
STARLINK-31491          
1 59011U 24036P   26204.19003596  .00009593  00000+0  33554-3 0  9996
2 59011  53.1570 169.1170 0001643  92.1524 267.9665 15.30206007136062
STARLINK-31465          
1 59012U 24036Q   26204.18474773  .00000948  00000+0  44145-4 0  9999
2 59012  53.1579 169.0836 0001288  86.8837 273.2311 15.30193731136069
STARLINK-31389          
1 59013U 24036R   26204.23847105 -.00000663  00000+0 -96025-5 0  9990
2 59013  53.1621 168.7071 0000738  90.1614 269.9473 15.31695760136088
STARLINK-31454          
1 59014U 24036S   26204.18158267 -.00007498  00000+0 -24135-3 0  9993
2 59014  53.1588 169.0635 0001211  99.1618 260.9520 15.30192575136068
STARLINK-31521          
1 59015U 24036T   26204.18052187 -.00002075  00000+0 -57977-4 0  9995
2 59015  53.1587 169.0556 0001140  88.4461 271.6671 15.30185698136062
STARLINK-31526          
1 59016U 24036U   26204.10108693 -.00002059  00000+0 -54599-4 0  9991
2 59016  53.1601 142.9546 0002200  45.5830 314.5352 15.31680873136420
STARLINK-31406          
1 59017U 24036V   26204.13743439 -.00000686  00000+0 -91772-5 0  9997
2 59017  53.1602 153.1763 0001531  93.4262 266.6916 15.34393046136287
STARLINK-31527          
1 59018U 24036W   26204.27514163 -.00002174  00000+0 -53224-4 0  9996
2 59018  53.1636 168.2313 0001710  84.3653 275.7545 15.34399247136081
STARLINK-31436          
1 59019U 24036X   26204.19103299  .00020605  00000+0  70427-3 0  9992
2 59019  53.1580 169.1202 0000942  64.2021 295.9077 15.30274184136069
TJS-11                  
1 59020U 24037A   26203.70793640 -.00000355  00000+0  00000+0 0  9993
2 59020   4.1533 327.5299 0002111 157.9968 182.3596  1.00271151  8933
STARLINK-30996          
1 59023U 24038A   26203.68561998  .00000156  00000+0  15174-4 0  9994
2 59023  43.0008 344.6698 0000967 271.7689  88.3052 15.27579864136772
STARLINK-31006          
1 59024U 24038B   26204.32027060 -.00000939  00000+0 -24620-4 0  9991
2 59024  42.9997 290.6389 0001157 219.2423 140.8345 15.27575475136087
STARLINK-31178          
1 59025U 24038C   26203.76128017  .00000794  00000+0  38384-4 0  9992
2 59025  43.0020 344.3767 0001188 264.7939  95.2777 15.27580930135303
STARLINK-30863          
1 59027U 24038E   26203.78312436 -.00000211  00000+0  18523-5 0  9995
2 59027  43.0045 344.5284 0001321 289.6088  70.4621 15.27582188135308
STARLINK-31206          
1 59028U 24038F   26203.56692184  .00000167  00000+0  15599-4 0  9991
2 59028  43.0013 280.3044 0001341 271.4256  88.6442 15.27582447136157
STARLINK-31224          
1 59029U 24038G   26203.73301091  .00001193  00000+0  52857-4 0  9993
2 59029  43.0016 344.1607 0001576 279.4165  80.6509 15.27587430135413
STARLINK-31186          
1 59030U 24038H   26203.43820600 -.00000443  00000+0 -65834-5 0  9993
2 59030  43.0048 346.2492 0001524 259.0846 100.9834 15.27583282135360
STARLINK-31211          
1 59031U 24038J   26203.40094393  .00000240  00000+0  18239-4 0  9992
2 59031  43.0040 345.9710 0001145 281.2315  78.8408 15.27581395135250
STARLINK-30862          
1 59032U 24038K   26203.71005460  .00000634  00000+0  32553-4 0  9996
2 59032  43.0007 333.6523 0001669 253.5585 106.5083 15.27584917135422
STARLINK-31210          
1 59033U 24038L   26203.68867601 -.00000092  00000+0  61799-5 0  9990
2 59033  43.0017 341.2462 0000847 268.6754  91.4000 15.27579081135509
STARLINK-31231          
1 59034U 24038M   26203.68481869 -.00000343  00000+0 -29671-5 0  9992
2 59034  43.0010 341.2144 0000416 274.3116  85.7688 15.27583485135330
STARLINK-31207          
1 59035U 24038N   26203.74634445  .00001101  00000+0  49516-4 0  9990
2 59035  43.0023 340.8170 0001253 267.8542  92.2166 15.27584718135513
STARLINK-31217          
1 59036U 24038P   26204.12613983 -.00000561  00000+0 -10862-4 0  9991
2 59036  43.0004 244.3435 0001556 265.8942  94.1732 15.27573209136652
STARLINK-31208          
1 59037U 24038Q   26203.78698552 -.00001502  00000+0 -45103-4 0  9990
2 59037  43.0033 344.5368 0001068 257.6826 102.3906 15.27570086135475
