OBJECT_NAME,OBJECT_ID,EPOCH,MEAN_MOTION,ECCENTRICITY,INCLINATION,RA_OF_ASC_NODE,ARG_OF_PERICENTER,MEAN_ANOMALY,EPHEMERIS_TYPE,CLASSIFICATION_TYPE,NORAD_CAT_ID,ELEMENT_SET_NO,REV_AT_EPOCH,BSTAR,MEAN_MOTION_DOT,MEAN_MOTION_DDOT
STARLINK-31484,2024-036H,2026-07-23T04:48:40.045536,15.30199033,.00011526,53.1606,168.4744,65.7397,294.3724,0,U,59005,999,13607,.83372865E-4,.2111E-4,0
STARLINK-31450,2024-036J,2026-07-23T03:25:15.546720,15.30191827,.00014654,53.1604,168.8234,94.4120,265.7049,0,U,59006,999,13606,.15393046E-4,.97E-6,0
STARLINK-31456,2024-036K,2026-07-23T03:19:10.626816,15.30197605,.00014464,53.1611,168.7928,87.4005,272.7161,0,U,59007,999,13606,-.35229249E-4,-.1402E-4,0
STARLINK-31460,2024-036L,2026-07-23T03:37:42.092832,15.34386221,.00012247,53.1615,168.8817,102.7653,257.3487,0,U,59008,999,13606,-.7393848E-5,-.626E-5,0
STARLINK-31488,2024-036M,2026-07-23T04:47:08.798496,15.30199514,.00012835,53.1595,168.4668,105.4430,254.6713,0,U,59009,999,13607,-.19983401E-4,-.951E-5,0
STARLINK-31528,2024-036N,2026-07-23T04:32:06.850752,15.30202791,.00018327,53.1577,169.1132,80.7780,279.3428,0,U,59010,999,13606,.8259353E-5,-.115E-5,0
STARLINK-31491,2024-036P,2026-07-23T04:33:39.106944,15.30206007,.00016439,53.1570,169.1170,92.1524,267.9665,0,U,59011,999,13606,.33553856E-3,.9593E-4,0
STARLINK-31465,2024-036Q,2026-07-23T04:26:02.203872,15.30193731,.00012887,53.1579,169.0836,86.8837,273.2311,0,U,59012,999,13606,.44145405E-4,.948E-5,0
STARLINK-31389,2024-036R,2026-07-23T05:43:23.898720,15.31695760,.00007388,53.1621,168.7071,90.1614,269.9473,0,U,59013,999,13608,-.9602494E-5,-.663E-5,0
STARLINK-31454,2024-036S,2026-07-23T04:21:28.742688,15.30192575,.00012118,53.1588,169.0635,99.1618,260.9520,0,U,59014,999,13606,-.24134839E-3,-.7498E-4,0
STARLINK-31521,2024-036T,2026-07-23T04:19:57.089568,15.30185698,.00011406,53.1587,169.0556,88.4461,271.6671,0,U,59015,999,13606,-.57976573E-4,-.2075E-4,0
STARLINK-31526,2024-036U,2026-07-23T02:25:33.910752,15.31680873,.00022005,53.1601,142.9546,45.5830,314.5352,0,U,59016,999,13642,-.5459949E-4,-.2059E-4,0
STARLINK-31406,2024-036V,2026-07-23T03:17:54.331296,15.34393046,.0001531,53.1602,153.1763,93.4262,266.6916,0,U,59017,999,13628,-.9177161E-5,-.686E-5,0
STARLINK-31527,2024-036W,2026-07-23T06:36:12.236832,15.34399247,.00017106,53.1636,168.2313,84.3653,275.7545,0,U,59018,999,13608,-.53224317E-4,-.2174E-4,0
STARLINK-31436,2024-036X,2026-07-23T04:35:05.250336,15.30274184,.00009421,53.1580,169.1202,64.2021,295.9077,0,U,59019,999,13606,.70427419E-3,.20605E-3,0
TJS-11,2024-037A,2026-07-22T16:59:25.704960,1.00271151,.0002111,4.1533,327.5299,157.9968,182.3596,0,U,59020,999,893,0,-.355E-5,0
STARLINK-30996,2024-038A,2026-07-22T16:27:17.566272,15.27579864,.00009672,43.0008,344.6698,271.7689,88.3052,0,U,59023,999,13677,.15174338E-4,.156E-5,0
STARLINK-31006,2024-038B,2026-07-23T07:41:11.379840,15.27575475,.00011571,42.9997,290.6389,219.2423,140.8345,0,U,59024,999,13608,-.24619638E-4,-.939E-5,0
STARLINK-31178,2024-038C,2026-07-22T18:16:14.606688,15.27580930,.00011881,43.0020,344.3767,264.7939,95.2777,0,U,59025,999,13530,.38384002E-4,.794E-5,0
STARLINK-30863,2024-038E,2026-07-22T18:47:41.944704,15.27582188,.00013217,43.0045,344.5284,289.6088,70.4621,0,U,59027,999,13530,.1852313E-5,-.211E-5,0
STARLINK-31206,2024-038F,2026-07-22T13:36:22.046976,15.27582447,.00013411,43.0013,280.3044,271.4256,88.6442,0,U,59028,999,13615,.15598516E-4,.167E-5,0
STARLINK-31224,2024-038G,2026-07-22T17:35:32.142624,15.27587430,.00015768,43.0016,344.1607,279.4165,80.6509,0,U,59029,999,13541,.52856798E-4,.1193E-4,0
STARLINK-31186,2024-038H,2026-07-22T10:31:00.998400,15.27583282,.00015247,43.0048,346.2492,259.0846,100.9834,0,U,59030,999,13536,-.6583444E-5,-.443E-5,0
STARLINK-31211,2024-038J,2026-07-22T09:37:21.555552,15.27581395,.00011457,43.0040,345.9710,281.2315,78.8408,0,U,59031,999,13525,.18239498E-4,.24E-5,0
STARLINK-30862,2024-038K,2026-07-22T17:02:28.717440,15.27584917,.00016697,43.0007,333.6523,253.5585,106.5083,0,U,59032,999,13542,.32552791E-4,.634E-5,0
STARLINK-31210,2024-038L,2026-07-22T16:31:41.607264,15.27579081,.0000847,43.0017,341.2462,268.6754,91.4000,0,U,59033,999,13550,.6179879E-5,-.92E-6,0
STARLINK-31231,2024-038M,2026-07-22T16:26:08.334816,15.27583485,.00004161,43.0010,341.2144,274.3116,85.7688,0,U,59034,999,13533,-.296714E-5,-.343E-5,0
STARLINK-31207,2024-038N,2026-07-22T17:54:44.160480,15.27584718,.00012532,43.0023,340.8170,267.8542,92.2166,0,U,59035,999,13551,.49515683E-4,.1101E-4,0
STARLINK-31217,2024-038P,2026-07-23T03:01:38.481312,15.27573209,.0001556,43.0004,244.3435,265.8942,94.1732,0,U,59036,999,13665,-.108625E-4,-.561E-5,0
STARLINK-31208,2024-038Q,2026-07-22T18:53:15.548928,15.27570086,.00010684,43.0033,344.5368,257.6826,102.3906,0,U,59037,999,13547,-.45102792E-4,-.1502E-4,0
